[Satellite]
VERSION=1.1
NAME=SNUSAT-1
NICKNAME=SNUSAT-1
TLE1=1 42727U 98067MG  18021.15171982  .00019700  00000-0  21863-3 0  9998
TLE2=2 42727  51.6369  24.2860 0007292   9.5827 350.5306 15.62911313 37449
